{
  "type": "FeatureCollection",
  "features": [
    {
      "type": "Feature",
      "properties": {
        "norad_id": 50032,
        "name": "COSMOS 1408 DEB",
        "group": "cosmos-1408-debris",
        "lat": 80.78958045856515,
        "lon": 119.58945287927762,
        "alt_km": 431.158837721704,
        "timestamp": "2025-12-05T11:32:56.289159+00:00",
        "meta_object_name": "COSMOS 1408 DEB",
        "meta_object_id": "1982-092RU",
        "meta_epoch": "2025-12-04T16:32:15.185760",
        "meta_mean_motion": 15.455691,
        "meta_eccentricity": 0.0014735,
        "meta_inclination": 82.5654,
        "meta_ra_of_asc_node": 66.7593,
        "meta_arg_of_pericenter": 240.0734,
        "meta_mean_anomaly": 119.9052,
        "meta_ephemeris_type": 0,
        "meta_classification_type": "U",
        "meta_norad_cat_id": 50032,
        "meta_element_set_no": 999,
        "meta_rev_at_epoch": 22479,
        "meta_bstar": 0.00021211,
        "meta_mean_motion_dot": 0.00010274,
        "meta_mean_motion_ddot": 0,
        "tle_line1": "1 50032U 82092RU  25338.68906465  .00010274  00000+0  21211-3 0  9999",
        "tle_line2": "2 50032  82.5654  66.7593 0014735 240.0734 119.9052 15.45569100224795"
      },
      "geometry": {
        "type": "Point",
        "coordinates": [
          119.58945287927762,
          80.78958045856515
        ]
      }
    },
    {
      "type": "Feature",
      "properties": {
        "norad_id": 50058,
        "name": "COSMOS 1408 DEB",
        "group": "cosmos-1408-debris",
        "lat": 6.472316756706954,
        "lon": -103.9088011162328,
        "alt_km": 372.6178869331661,
        "timestamp": "2025-12-05T11:32:56.289179+00:00",
        "meta_object_name": "COSMOS 1408 DEB",
        "meta_object_id": "1982-092SW",
        "meta_epoch": "2025-12-04T07:09:39.474720",
        "meta_mean_motion": 15.63350029,
        "meta_eccentricity": 0.0016261,
        "meta_inclination": 82.6139,
        "meta_ra_of_asc_node": 78.171,
        "meta_arg_of_pericenter": 128.8171,
        "meta_mean_anomaly": 231.4542,
        "meta_ephemeris_type": 0,
        "meta_classification_type": "U",
        "meta_norad_cat_id": 50058,
        "meta_element_set_no": 999,
        "meta_rev_at_epoch": 22672,
        "meta_bstar": 0.00063989,
        "meta_mean_motion_dot": 0.00059517,
        "meta_mean_motion_ddot": 0,
        "tle_line1": "1 50058U 82092SW  25338.29837355  .00059517  00000+0  63989-3 0  9996",
        "tle_line2": "2 50058  82.6139  78.1710 0016261 128.8171 231.4542 15.63350029226721"
      },
      "geometry": {
        "type": "Point",
        "coordinates": [
          -103.9088011162328,
          6.472316756706954
        ]
      }
    },
    {
      "type": "Feature",
      "properties": {
        "norad_id": 50404,
        "name": "COSMOS 1408 DEB",
        "group": "cosmos-1408-debris",
        "lat": 14.228230834848125,
        "lon": 40.46574154762015,
        "alt_km": 465.44625750954674,
        "timestamp": "2025-12-05T11:32:56.289191+00:00",
        "meta_object_name": "COSMOS 1408 DEB",
        "meta_object_id": "1982-092ADS",
        "meta_epoch": "2025-12-04T03:02:32.219520",
        "meta_mean_motion": 15.11972911,
        "meta_eccentricity": 0.01759389,
        "meta_inclination": 82.207,
        "meta_ra_of_asc_node": 223.8385,
        "meta_arg_of_pericenter": 228.6918,
        "meta_mean_anomaly": 129.9057,
        "meta_ephemeris_type": 0,
        "meta_classification_type": "U",
        "meta_norad_cat_id": 50404,
        "meta_element_set_no": 999,
        "meta_rev_at_epoch": 21063,
        "meta_bstar": 0.0052613218,
        "meta_mean_motion_dot": 0.00133611,
        "meta_mean_motion_ddot": 0,
        "tle_line1": "1 50404U 82092ADS 25338.12676180  .00133611  00000+0  52613-2 0  9999",
        "tle_line2": "2 50404  82.2070 223.8385 0175938 228.6918 129.9057 15.11972911210636"
      },
      "geometry": {
        "type": "Point",
        "coordinates": [
          40.46574154762015,
          14.228230834848125
        ]
      }
    },
    {
      "type": "Feature",
      "properties": {
        "norad_id": 50621,
        "name": "COSMOS 1408 DEB",
        "group": "cosmos-1408-debris",
        "lat": 22.16191882509509,
        "lon": 84.77998489479279,
        "alt_km": 416.690938368165,
        "timestamp": "2025-12-05T11:32:56.289202+00:00",
        "meta_object_name": "COSMOS 1408 DEB",
        "meta_object_id": "1982-092ALR",
        "meta_epoch": "2025-12-04T07:40:18.152256",
        "meta_mean_motion": 15.55994248,
        "meta_eccentricity": 0.0028866,
        "meta_inclination": 82.5706,
        "meta_ra_of_asc_node": 82.9412,
        "meta_arg_of_pericenter": 183.2784,
        "meta_mean_anomaly": 176.8286,
        "meta_ephemeris_type": 0,
        "meta_classification_type": "U",
        "meta_norad_cat_id": 50621,
        "meta_element_set_no": 999,
        "meta_rev_at_epoch": 22119,
        "meta_bstar": 0.00073704,
        "meta_mean_motion_dot": 0.00052478,
        "meta_mean_motion_ddot": 0,
        "tle_line1": "1 50621U 82092ALR 25338.31965454  .00052478  00000+0  73704-3 0  9992",
        "tle_line2": "2 50621  82.5706  82.9412 0028866 183.2784 176.8286 15.55994248221198"
      },
      "geometry": {
        "type": "Point",
        "coordinates": [
          84.77998489479279,
          22.16191882509509
        ]
      }
    }
  ]
}